[{"CCSDS_OMM_VERS":"2.0","COMMENT":"GENERATED VIA SPACE-TRACK.ORG API","CREATION_DATE":"2012-08-08T08:30:03","ORIGINATOR":"18 SPCS","OBJECT_NAME":"GALILEO-FM2","OBJECT_ID":"2011-060B","CENTER_NAME":"EARTH","REF_FRAME":"TEME","TIME_SYSTEM":"UTC","MEAN_ELEMENT_THEORY":"SGP4","EPOCH":"2012-08-07T03:28:40.035647","MEAN_MOTION":"1.70474863","ECCENTRICITY":"0.00042650","INCLINATION":"54.7709","RA_OF_ASC_NODE":"121.6374","ARG_OF_PERICENTER":"289.1233","MEAN_ANOMALY":"70.8749","EPHEMERIS_TYPE":"0","CLASSIFICATION_TYPE":"U","NORAD_CAT_ID":"37847","ELEMENT_SET_NO":"999","REV_AT_EPOCH":"495","BSTAR":"0.00010000000000","MEAN_MOTION_DOT":"-0.00000027","MEAN_MOTION_DDOT":"0.0000000000000","SEMIMAJOR_AXIS":"29600.239","PERIOD":"844.699","APOAPSIS":"23234.728","PERIAPSIS":"23209.479","OBJECT_TYPE":"PAYLOAD","RCS_SIZE":"LARGE","COUNTRY_CODE":"ESA","LAUNCH_DATE":"2011-10-21","SITE":"FRGUI","DECAY_DATE":null,"FILE":"1331736","GP_ID":"89988685","TLE_LINE0":"0 GALILEO-FM2","TLE_LINE1":"1 37847U 11060B   12220.14490782 -.00000027 +00000-0 +10000-3 0  9993","TLE_LINE2":"2 37847 054.7709 121.6374 0004265 289.1233 070.8749 01.70474863004955"},{"CCSDS_OMM_VERS":"2.0","COMMENT":"GENERATED VIA SPACE-TRACK.ORG API","CREATION_DATE":"2012-08-09T08:17:32","ORIGINATOR":"18 SPCS","OBJECT_NAME":"GALILEO-FM2","OBJECT_ID":"2011-060B","CENTER_NAME":"EARTH","REF_FRAME":"TEME","TIME_SYSTEM":"UTC","MEAN_ELEMENT_THEORY":"SGP4","EPOCH":"2012-08-07T17:33:20.469888","MEAN_MOTION":"1.70474858","ECCENTRICITY":"0.00042440","INCLINATION":"54.7710","RA_OF_ASC_NODE":"121.6209","ARG_OF_PERICENTER":"289.0709","MEAN_ANOMALY":"70.9267","EPHEMERIS_TYPE":"0","CLASSIFICATION_TYPE":"U","NORAD_CAT_ID":"37847","ELEMENT_SET_NO":"999","REV_AT_EPOCH":"496","BSTAR":"0.00010000000000","MEAN_MOTION_DOT":"-0.00000028","MEAN_MOTION_DDOT":"0.0000000000000","SEMIMAJOR_AXIS":"29600.239","PERIOD":"844.699","APOAPSIS":"23234.667","PERIAPSIS":"23209.542","OBJECT_TYPE":"PAYLOAD","RCS_SIZE":"LARGE","COUNTRY_CODE":"ESA","LAUNCH_DATE":"2011-10-21","SITE":"FRGUI","DECAY_DATE":null,"FILE":"1332219","GP_ID":"90005390","TLE_LINE0":"0 GALILEO-FM2","TLE_LINE1":"1 37847U 11060B   12220.73148692 -.00000028 +00000-0 +10000-3 0  9999","TLE_LINE2":"2 37847 054.7710 121.6209 0004244 289.0709 070.9267 01.70474858004969"},{"CCSDS_OMM_VERS":"2.0","COMMENT":"GENERATED VIA SPACE-TRACK.ORG API","CREATION_DATE":"2012-08-09T06:19:22","ORIGINATOR":"18 SPCS","OBJECT_NAME":"GALILEO-FM2","OBJECT_ID":"2011-060B","CENTER_NAME":"EARTH","REF_FRAME":"TEME","TIME_SYSTEM":"UTC","MEAN_ELEMENT_THEORY":"SGP4","EPOCH":"2012-08-08T21:42:41.335776","MEAN_MOTION":"1.70474848","ECCENTRICITY":"0.00042070","INCLINATION":"54.7714","RA_OF_ASC_NODE":"121.5880","ARG_OF_PERICENTER":"288.8775","MEAN_ANOMALY":"71.1189","EPHEMERIS_TYPE":"0","CLASSIFICATION_TYPE":"U","NORAD_CAT_ID":"37847","ELEMENT_SET_NO":"999","REV_AT_EPOCH":"498","BSTAR":"0.00010000000000","MEAN_MOTION_DOT":"-0.00000030","MEAN_MOTION_DDOT":"0.0000000000000","SEMIMAJOR_AXIS":"29600.240","PERIOD":"844.699","APOAPSIS":"23234.558","PERIAPSIS":"23209.652","OBJECT_TYPE":"PAYLOAD","RCS_SIZE":"LARGE","COUNTRY_CODE":"ESA","LAUNCH_DATE":"2011-10-21","SITE":"FRGUI","DECAY_DATE":null,"FILE":"1332185","GP_ID":"89997528","TLE_LINE0":"0 GALILEO-FM2","TLE_LINE1":"1 37847U 11060B   12221.90464509 -.00000030  00000-0  10000-3 0  9990","TLE_LINE2":"2 37847 054.7714 121.5880 0004207 288.8775 071.1189 01.70474848  4983"},{"CCSDS_OMM_VERS":"2.0","COMMENT":"GENERATED VIA SPACE-TRACK.ORG API","CREATION_DATE":"2012-08-12T06:53:04","ORIGINATOR":"18 SPCS","OBJECT_NAME":"GALILEO-FM2","OBJECT_ID":"2011-060B","CENTER_NAME":"EARTH","REF_FRAME":"TEME","TIME_SYSTEM":"UTC","MEAN_ELEMENT_THEORY":"SGP4","EPOCH":"2012-08-10T15:56:42.819071","MEAN_MOTION":"1.70474855","ECCENTRICITY":"0.00041170","INCLINATION":"54.7719","RA_OF_ASC_NODE":"121.5386","ARG_OF_PERICENTER":"289.5052","MEAN_ANOMALY":"70.4915","EPHEMERIS_TYPE":"0","CLASSIFICATION_TYPE":"U","NORAD_CAT_ID":"37847","ELEMENT_SET_NO":"999","REV_AT_EPOCH":"501","BSTAR":"0.00010000000000","MEAN_MOTION_DOT":"-0.00000029","MEAN_MOTION_DDOT":"0.0000000000000","SEMIMAJOR_AXIS":"29600.240","PERIOD":"844.699","APOAPSIS":"23234.291","PERIAPSIS":"23209.918","OBJECT_TYPE":"PAYLOAD","RCS_SIZE":"LARGE","COUNTRY_CODE":"ESA","LAUNCH_DATE":"2011-10-21","SITE":"FRGUI","DECAY_DATE":null,"FILE":"1333497","GP_ID":"90051207","TLE_LINE0":"0 GALILEO-FM2","TLE_LINE1":"1 37847U 11060B   12223.66438448 -.00000029 +00000-0 +10000-3 0  9996","TLE_LINE2":"2 37847 054.7719 121.5386 0004117 289.5052 070.4915 01.70474855005017"},{"CCSDS_OMM_VERS":"2.0","COMMENT":"GENERATED VIA SPACE-TRACK.ORG API","CREATION_DATE":"2012-08-11T08:56:01","ORIGINATOR":"18 SPCS","OBJECT_NAME":"GALILEO-FM2","OBJECT_ID":"2011-060B","CENTER_NAME":"EARTH","REF_FRAME":"TEME","TIME_SYSTEM":"UTC","MEAN_ELEMENT_THEORY":"SGP4","EPOCH":"2012-08-10T15:56:42.849311","MEAN_MOTION":"1.70474853","ECCENTRICITY":"0.00041200","INCLINATION":"54.7719","RA_OF_ASC_NODE":"121.5386","ARG_OF_PERICENTER":"289.5064","MEAN_ANOMALY":"70.4904","EPHEMERIS_TYPE":"0","CLASSIFICATION_TYPE":"U","NORAD_CAT_ID":"37847","ELEMENT_SET_NO":"999","REV_AT_EPOCH":"501","BSTAR":"0.00010000000000","MEAN_MOTION_DOT":"-0.00000029","MEAN_MOTION_DDOT":"0.0000000000000","SEMIMAJOR_AXIS":"29600.240","PERIOD":"844.699","APOAPSIS":"23234.300","PERIAPSIS":"23209.909","OBJECT_TYPE":"PAYLOAD","RCS_SIZE":"LARGE","COUNTRY_CODE":"ESA","LAUNCH_DATE":"2011-10-21","SITE":"FRGUI","DECAY_DATE":null,"FILE":"1333153","GP_ID":"90036486","TLE_LINE0":"0 GALILEO-FM2","TLE_LINE1":"1 37847U 11060B   12223.66438483 -.00000029 +00000-0 +10000-3 0  9995","TLE_LINE2":"2 37847 054.7719 121.5386 0004120 289.5064 070.4904 01.70474853005010"},{"CCSDS_OMM_VERS":"2.0","COMMENT":"GENERATED VIA SPACE-TRACK.ORG API","CREATION_DATE":"2012-08-12T09:49:49","ORIGINATOR":"18 SPCS","OBJECT_NAME":"GALILEO-FM2","OBJECT_ID":"2011-060B","CENTER_NAME":"EARTH","REF_FRAME":"TEME","TIME_SYSTEM":"UTC","MEAN_ELEMENT_THEORY":"SGP4","EPOCH":"2012-08-11T20:06:03.911327","MEAN_MOTION":"1.70474866","ECCENTRICITY":"0.00040500","INCLINATION":"54.7724","RA_OF_ASC_NODE":"121.5056","ARG_OF_PERICENTER":"289.4761","MEAN_ANOMALY":"70.5219","EPHEMERIS_TYPE":"0","CLASSIFICATION_TYPE":"U","NORAD_CAT_ID":"37847","ELEMENT_SET_NO":"999","REV_AT_EPOCH":"503","BSTAR":"0.00010000000000","MEAN_MOTION_DOT":"-0.00000026","MEAN_MOTION_DDOT":"0.0000000000000","SEMIMAJOR_AXIS":"29600.238","PERIOD":"844.699","APOAPSIS":"23234.091","PERIAPSIS":"23210.115","OBJECT_TYPE":"PAYLOAD","RCS_SIZE":"LARGE","COUNTRY_CODE":"ESA","LAUNCH_DATE":"2011-10-21","SITE":"FRGUI","DECAY_DATE":null,"FILE":"1333599","GP_ID":"90053798","TLE_LINE0":"0 GALILEO-FM2","TLE_LINE1":"1 37847U 11060B   12224.83754527 -.00000026  00000-0  10000-3 0  9992","TLE_LINE2":"2 37847 054.7724 121.5056 0004050 289.4761 070.5219 01.70474866  5031"},{"CCSDS_OMM_VERS":"2.0","COMMENT":"GENERATED VIA SPACE-TRACK.ORG API","CREATION_DATE":"2012-08-14T08:43:54","ORIGINATOR":"18 SPCS","OBJECT_NAME":"GALILEO-FM2","OBJECT_ID":"2011-060B","CENTER_NAME":"EARTH","REF_FRAME":"TEME","TIME_SYSTEM":"UTC","MEAN_ELEMENT_THEORY":"SGP4","EPOCH":"2012-08-13T14:20:06.256896","MEAN_MOTION":"1.70474845","ECCENTRICITY":"0.00039940","INCLINATION":"54.7728","RA_OF_ASC_NODE":"121.4562","ARG_OF_PERICENTER":"289.4519","MEAN_ANOMALY":"70.5515","EPHEMERIS_TYPE":"0","CLASSIFICATION_TYPE":"U","NORAD_CAT_ID":"37847","ELEMENT_SET_NO":"999","REV_AT_EPOCH":"506","BSTAR":"0.00010000000000","MEAN_MOTION_DOT":"-0.00000019","MEAN_MOTION_DDOT":"0.0000000000000","SEMIMAJOR_AXIS":"29600.241","PERIOD":"844.699","APOAPSIS":"23233.928","PERIAPSIS":"23210.283","OBJECT_TYPE":"PAYLOAD","RCS_SIZE":"LARGE","COUNTRY_CODE":"ESA","LAUNCH_DATE":"2011-10-21","SITE":"FRGUI","DECAY_DATE":null,"FILE":"1334577","GP_ID":"90083061","TLE_LINE0":"0 GALILEO-FM2","TLE_LINE1":"1 37847U 11060B   12226.59729464 -.00000019 +00000-0 +10000-3 0  9991","TLE_LINE2":"2 37847 054.7728 121.4562 0003994 289.4519 070.5515 01.70474845005062"},{"CCSDS_OMM_VERS":"2.0","COMMENT":"GENERATED VIA SPACE-TRACK.ORG API","CREATION_DATE":"2012-08-14T17:18:53","ORIGINATOR":"18 SPCS","OBJECT_NAME":"GALILEO-FM2","OBJECT_ID":"2011-060B","CENTER_NAME":"EARTH","REF_FRAME":"TEME","TIME_SYSTEM":"UTC","MEAN_ELEMENT_THEORY":"SGP4","EPOCH":"2012-08-14T18:29:28.318560","MEAN_MOTION":"1.70474838","ECCENTRICITY":"0.00039140","INCLINATION":"54.7733","RA_OF_ASC_NODE":"121.4231","ARG_OF_PERICENTER":"289.1864","MEAN_ANOMALY":"70.8239","EPHEMERIS_TYPE":"0","CLASSIFICATION_TYPE":"U","NORAD_CAT_ID":"37847","ELEMENT_SET_NO":"999","REV_AT_EPOCH":"508","BSTAR":"0.00010000000000","MEAN_MOTION_DOT":"-0.00000013","MEAN_MOTION_DDOT":"0.0000000000000","SEMIMAJOR_AXIS":"29600.241","PERIOD":"844.699","APOAPSIS":"23233.692","PERIAPSIS":"23210.521","OBJECT_TYPE":"PAYLOAD","RCS_SIZE":"LARGE","COUNTRY_CODE":"ESA","LAUNCH_DATE":"2011-10-21","SITE":"FRGUI","DECAY_DATE":null,"FILE":"1335073","GP_ID":"90087189","TLE_LINE0":"0 GALILEO-FM2","TLE_LINE1":"1 37847U 11060B   12227.77046665 -.00000013  00000-0  10000-3 0  9991","TLE_LINE2":"2 37847 054.7733 121.4231 0003914 289.1864 070.8239 01.70474838  5083"}]